start=new Date('2022-01-05T00:00:00.000Z').valueOf();
sats=[{"REV_AT_EPOCH":"3534","ARG_OF_PERICENTER":"99.1421","PERIAPSIS":"545.930","RA_OF_ASC_NODE":"137.6932","PERIOD":"95.593","RCS_SIZE":"LARGE","SEMIMAJOR_AXIS":"6925.370","CENTER_NAME":"EARTH","MEAN_ANOMALY":"260.9781","TLE_LINE2":"2 48588  53.0535 137.6932 0001885  99.1421 260.9781 15.06392971 35346","MEAN_MOTION_DOT":"-0.00000290","APOAPSIS":"548.541","ELEMENT_SET_NO":"999","SITE":"AFETR","MEAN_MOTION_DDOT":"0.0000000000000","REF_FRAME":"TEME","OBJECT_TYPE":"PAYLOAD","TIME_SYSTEM":"UTC","OBJECT_ID":"2021-041AM","EPOCH":"2022-01-04T16:08:59.400672","FILE":"3264067","GP_ID":"193216894","CLASSIFICATION_TYPE":"U","MEAN_MOTION":"15.06392971","NORAD_CAT_ID":"48588","EPHEMERIS_TYPE":"0","DECAY_DATE":null,"COUNTRY_CODE":"US","LAUNCH_DATE":"2021-05-15","OBJECT_NAME":"STARLINK-2244","INCLINATION":"53.0535","ECCENTRICITY":"0.00018850","BSTAR":"-0.00000053877000","TLE_LINE1":"1 48588U 21041AM  22004.67290973 -.00000290  00000-0 -53877-6 0  9991","MEAN_ELEMENT_THEORY":"SGP4"},{"MEAN_ANOMALY":"256.5936","TLE_LINE2":"2 48589  53.0542 137.7035 0002262 103.5304 256.5936 15.06398400 35346","CENTER_NAME":"EARTH","SEMIMAJOR_AXIS":"6925.353","PERIOD":"95.592","RA_OF_ASC_NODE":"137.7035","RCS_SIZE":"LARGE","PERIAPSIS":"545.652","REV_AT_EPOCH":"3534","ARG_OF_PERICENTER":"103.5304","OBJECT_TYPE":"PAYLOAD","MEAN_MOTION_DDOT":"0.0000000000000","REF_FRAME":"TEME","SITE":"AFETR","ELEMENT_SET_NO":"999","MEAN_MOTION_DOT":"0.00000903","APOAPSIS":"548.785","EPHEMERIS_TYPE":"0","NORAD_CAT_ID":"48589","MEAN_MOTION":"15.06398400","GP_ID":"193217144","CLASSIFICATION_TYPE":"U","FILE":"3264067","TIME_SYSTEM":"UTC","EPOCH":"2022-01-04T16:03:40.195008","OBJECT_ID":"2021-041AN","MEAN_ELEMENT_THEORY":"SGP4","TLE_LINE1":"1 48589U 21041AN  22004.66921522  .00000903  00000-0  79529-4 0  9991","BSTAR":"0.00007952900000","ECCENTRICITY":"0.00022620","OBJECT_NAME":"STARLINK-2245","INCLINATION":"53.0542","COUNTRY_CODE":"US","LAUNCH_DATE":"2021-05-15","DECAY_DATE":null},{"MEAN_ELEMENT_THEORY":"SGP4","TLE_LINE1":"1 48590U 21041AP  22004.69410651 -.00000527  00000-0 -16491-4 0  9995","BSTAR":"-0.00001649100000","ECCENTRICITY":"0.00019990","OBJECT_NAME":"STARLINK-2246","INCLINATION":"53.0549","LAUNCH_DATE":"2021-05-15","COUNTRY_CODE":"US","DECAY_DATE":null,"NORAD_CAT_ID":"48590","EPHEMERIS_TYPE":"0","MEAN_MOTION":"15.06392373","GP_ID":"193217896","CLASSIFICATION_TYPE":"U","FILE":"3264067","EPOCH":"2022-01-04T16:39:30.802464","OBJECT_ID":"2021-041AP","TIME_SYSTEM":"UTC","OBJECT_TYPE":"PAYLOAD","REF_FRAME":"TEME","MEAN_MOTION_DDOT":"0.0000000000000","SITE":"AFETR","ELEMENT_SET_NO":"999","APOAPSIS":"548.621","MEAN_MOTION_DOT":"-0.00000527","TLE_LINE2":"2 48590  53.0549 147.5892 0001999  94.7664 265.3553 15.06392373 35202","MEAN_ANOMALY":"265.3553","CENTER_NAME":"EARTH","SEMIMAJOR_AXIS":"6925.372","RCS_SIZE":"LARGE","PERIOD":"95.593","RA_OF_ASC_NODE":"147.5892","PERIAPSIS":"545.853","ARG_OF_PERICENTER":"94.7664","REV_AT_EPOCH":"3520"},{"ARG_OF_PERICENTER":"94.0290","REV_AT_EPOCH":"3573","PERIAPSIS":"545.909","RCS_SIZE":"LARGE","RA_OF_ASC_NODE":"137.9991","PERIOD":"95.593","SEMIMAJOR_AXIS":"6925.372","CENTER_NAME":"EARTH","TLE_LINE2":"2 48591  53.0593 137.9991 0001917  94.0290 266.0918 15.06392355 35734","MEAN_ANOMALY":"266.0918","APOAPSIS":"548.565","MEAN_MOTION_DOT":"-0.00000142","ELEMENT_SET_NO":"999","SITE":"AFETR","REF_FRAME":"TEME","MEAN_MOTION_DDOT":"0.0000000000000","OBJECT_TYPE":"PAYLOAD","EPOCH":"2022-01-04T14:05:33.182304","OBJECT_ID":"2021-041AQ","TIME_SYSTEM":"UTC","FILE":"3263963","GP_ID":"193192385","CLASSIFICATION_TYPE":"U","MEAN_MOTION":"15.06392355","NORAD_CAT_ID":"48591","EPHEMERIS_TYPE":"0","DECAY_DATE":null,"LAUNCH_DATE":"2021-05-15","COUNTRY_CODE":"US","INCLINATION":"53.0593","OBJECT_NAME":"STARLINK-2248","ECCENTRICITY":"0.00019170","BSTAR":"0.00000936560000","TLE_LINE1":"1 48591U 21041AQ  22004.58718961 -.00000142  00000-0  93656-5 0  9990","MEAN_ELEMENT_THEORY":"SGP4"},{"TLE_LINE1":"1 48592U 21041AR  22004.79362370 -.00000700  00000-0 -28065-4 0  9995","MEAN_ELEMENT_THEORY":"SGP4","BSTAR":"-0.00002806500000","OBJECT_NAME":"STARLINK-2249","INCLINATION":"53.0560","ECCENTRICITY":"0.00021620","DECAY_DATE":null,"LAUNCH_DATE":"2021-05-15","COUNTRY_CODE":"US","GP_ID":"193216395","MEAN_MOTION":"15.06394989","CLASSIFICATION_TYPE":"U","EPHEMERIS_TYPE":"0","NORAD_CAT_ID":"48592","FILE":"3264067","TIME_SYSTEM":"UTC","EPOCH":"2022-01-04T19:02:49.087680","OBJECT_ID":"2021-041AR","OBJECT_TYPE":"PAYLOAD","MEAN_MOTION_DDOT":"0.0000000000000","REF_FRAME":"TEME","SITE":"AFETR","MEAN_MOTION_DOT":"-0.00000700","APOAPSIS":"548.726","ELEMENT_SET_NO":"999","MEAN_ANOMALY":"260.7052","TLE_LINE2":"2 48592  53.0560 147.1548 0002162  99.4181 260.7052 15.06394989 35220","SEMIMAJOR_AXIS":"6925.364","CENTER_NAME":"EARTH","RA_OF_ASC_NODE":"147.1548","PERIOD":"95.592","RCS_SIZE":"LARGE","REV_AT_EPOCH":"3522","ARG_OF_PERICENTER":"99.4181","PERIAPSIS":"545.732"},{"OBJECT_ID":"2021-041AS","EPOCH":"2022-01-04T16:02:21.381792","TIME_SYSTEM":"UTC","EPHEMERIS_TYPE":"0","NORAD_CAT_ID":"48593","CLASSIFICATION_TYPE":"U","GP_ID":"193216645","MEAN_MOTION":"15.06393213","FILE":"3264067","ECCENTRICITY":"0.00019710","INCLINATION":"53.0552","OBJECT_NAME":"STARLINK-2250","LAUNCH_DATE":"2021-05-15","COUNTRY_CODE":"US","DECAY_DATE":null,"MEAN_ELEMENT_THEORY":"SGP4","TLE_LINE1":"1 48593U 21041AS  22004.66830303 -.00000635  00000-0 -23720-4 0  9998","BSTAR":"-0.00002372000000","RCS_SIZE":"LARGE","PERIOD":"95.593","RA_OF_ASC_NODE":"147.7063","PERIAPSIS":"545.869","ARG_OF_PERICENTER":"95.8190","REV_AT_EPOCH":"3520","TLE_LINE2":"2 48593  53.0552 147.7063 0001971  95.8190 264.3024 15.06393213 35203","MEAN_ANOMALY":"264.3024","CENTER_NAME":"EARTH","SEMIMAJOR_AXIS":"6925.369","SITE":"AFETR","ELEMENT_SET_NO":"999","APOAPSIS":"548.599","MEAN_MOTION_DOT":"-0.00000635","OBJECT_TYPE":"PAYLOAD","REF_FRAME":"TEME","MEAN_MOTION_DDOT":"0.0000000000000"},{"OBJECT_TYPE":"PAYLOAD","MEAN_MOTION_DDOT":"0.0000000000000","REF_FRAME":"TEME","SITE":"AFETR","MEAN_MOTION_DOT":"-0.00027737","APOAPSIS":"550.793","ELEMENT_SET_NO":"999","MEAN_ANOMALY":"271.1614","TLE_LINE2":"2 48594  53.0543 116.1579 0001597 105.3200 271.1614 15.05593358  3587","SEMIMAJOR_AXIS":"6927.822","CENTER_NAME":"EARTH","PERIOD":"95.643","RA_OF_ASC_NODE":"116.1579","RCS_SIZE":"LARGE","REV_AT_EPOCH":"358","ARG_OF_PERICENTER":"105.3200","PERIAPSIS":"548.581","TLE_LINE1":"1 48594U 21041AT  22004.91667824 -.00027737  00000-0 -18913-2 0  9991","MEAN_ELEMENT_THEORY":"SGP4","BSTAR":"-0.00189130000000","OBJECT_NAME":"STARLINK-2251","INCLINATION":"53.0543","ECCENTRICITY":"0.00015970","DECAY_DATE":null,"LAUNCH_DATE":"2021-05-15","COUNTRY_CODE":"US","GP_ID":"193217397","MEAN_MOTION":"15.05593358","CLASSIFICATION_TYPE":"U","NORAD_CAT_ID":"48594","EPHEMERIS_TYPE":"0","FILE":"3264067","TIME_SYSTEM":"UTC","EPOCH":"2022-01-04T22:00:00.999936","OBJECT_ID":"2021-041AT"},{"MEAN_ELEMENT_THEORY":"SGP4","TLE_LINE1":"1 48595U 21041AU  22004.84891387 -.00000811  00000-0 -35517-4 0  9992","BSTAR":"-0.00003551700000","ECCENTRICITY":"0.00018370","INCLINATION":"53.0553","OBJECT_NAME":"STARLINK-2252","LAUNCH_DATE":"2021-05-15","COUNTRY_CODE":"US","DECAY_DATE":null,"EPHEMERIS_TYPE":"0","NORAD_CAT_ID":"48595","MEAN_MOTION":"15.06394147","GP_ID":"193218147","CLASSIFICATION_TYPE":"U","FILE":"3264067","TIME_SYSTEM":"UTC","OBJECT_ID":"2021-041AU","EPOCH":"2022-01-04T20:22:26.158368","OBJECT_TYPE":"PAYLOAD","MEAN_MOTION_DDOT":"0.0000000000000","REF_FRAME":"TEME","SITE":"AFETR","ELEMENT_SET_NO":"999","MEAN_MOTION_DOT":"-0.00000811","APOAPSIS":"548.504","MEAN_ANOMALY":"260.1001","TLE_LINE2":"2 48595  53.0553 146.8984 0001837 100.0196 260.1001 15.06394147 36504","CENTER_NAME":"EARTH","SEMIMAJOR_AXIS":"6925.366","RA_OF_ASC_NODE":"146.8984","PERIOD":"95.593","RCS_SIZE":"LARGE","PERIAPSIS":"545.959","REV_AT_EPOCH":"3650","ARG_OF_PERICENTER":"100.0196"},{"EPOCH":"2022-01-04T16:07:39.420192","OBJECT_ID":"2021-041AV","TIME_SYSTEM":"UTC","FILE":"3264067","MEAN_MOTION":"15.06399117","GP_ID":"193216895","CLASSIFICATION_TYPE":"U","NORAD_CAT_ID":"48596","EPHEMERIS_TYPE":"0","DECAY_DATE":null,"LAUNCH_DATE":"2021-05-15","COUNTRY_CODE":"US","INCLINATION":"53.0551","OBJECT_NAME":"STARLINK-2253","ECCENTRICITY":"0.00022450","BSTAR":"-0.00001511000000","TLE_LINE1":"1 48596U 21041AV  22004.67198403 -.00000507  00000-0 -15110-4 0  9992","MEAN_ELEMENT_THEORY":"SGP4","ARG_OF_PERICENTER":"90.3240","REV_AT_EPOCH":"3566","PERIAPSIS":"545.662","RCS_SIZE":"LARGE","RA_OF_ASC_NODE":"147.6903","PERIOD":"95.592","SEMIMAJOR_AXIS":"6925.351","CENTER_NAME":"EARTH","TLE_LINE2":"2 48596  53.0551 147.6903 0002245  90.3240 269.8006 15.06399117 35667","MEAN_ANOMALY":"269.8006","APOAPSIS":"548.771","MEAN_MOTION_DOT":"-0.00000507","ELEMENT_SET_NO":"999","SITE":"AFETR","REF_FRAME":"TEME","MEAN_MOTION_DDOT":"0.0000000000000","OBJECT_TYPE":"PAYLOAD"},{"RA_OF_ASC_NODE":"147.6666","PERIOD":"95.592","RCS_SIZE":"LARGE","REV_AT_EPOCH":"3647","ARG_OF_PERICENTER":"96.7920","PERIAPSIS":"545.738","MEAN_ANOMALY":"263.3310","TLE_LINE2":"2 48597  53.0560 147.6666 0002117  96.7920 263.3310 15.06402995 36473","SEMIMAJOR_AXIS":"6925.339","CENTER_NAME":"EARTH","SITE":"AFETR","MEAN_MOTION_DOT":"-0.00000541","APOAPSIS":"548.670","ELEMENT_SET_NO":"999","OBJECT_TYPE":"PAYLOAD","MEAN_MOTION_DDOT":"0.0000000000000","REF_FRAME":"TEME","TIME_SYSTEM":"UTC","EPOCH":"2022-01-04T16:18:15.764832","OBJECT_ID":"2021-041AW","CLASSIFICATION_TYPE":"U","GP_ID":"193217145","MEAN_MOTION":"15.06402995","EPHEMERIS_TYPE":"0","NORAD_CAT_ID":"48597","FILE":"3264067","INCLINATION":"53.0560","OBJECT_NAME":"STARLINK-2255","ECCENTRICITY":"0.00021170","DECAY_DATE":null,"COUNTRY_CODE":"US","LAUNCH_DATE":"2021-05-15","TLE_LINE1":"1 48597U 21041AW  22004.67934913 -.00000541  00000-0 -17416-4 0  9996","MEAN_ELEMENT_THEORY":"SGP4","BSTAR":"-0.00001741600000"}];
